NORAD_CAT_ID,OBJECT_NAME,OBJECT_TYPE,EPOCH,MEAN_MOTION,ECCENTRICITY,INCLINATION,RA_OF_ASC_NODE,ARG_OF_PERICENTER,MEAN_ANOMALY,BSTAR,MEAN_MOTION_DOT,MEAN_MOTION_DDOT,TLE_LINE0,TLE_LINE1,TLE_LINE2,SEMIMAJOR_AXIS,PERIOD,APOGEE,PERIGEE,DECAYED
53283.0,STARLINK-4175,PAYLOAD,2022-12-13 13:11:36,15.08838331,0.0001702,53.2206,90.9412,36.9248,323.1861,7.5311e-05,9.11e-06,0.0,0 STARLINK-4175,1 53283U 22086AT  22347.54972912  .00000911  00000-0  75311-4 0  9998,2 53283  53.2206  90.9412 0001702  36.9248 323.1861 15.08838331 22736,6917.885,95.438,540.928,538.573,0.0
53283.0,STARLINK-4175,PAYLOAD,2022-12-13 19:33:09,15.08833565,0.0002364,53.2171,89.7529,47.9698,312.1495,-8.8923e-06,-4.3e-06,0.0,0 STARLINK-4175,1 53283U 22086AT  22347.81469607 -.00000430  00000-0 -88923-5 0  9992,2 53283  53.2171  89.7529 0002364  47.9698 312.1495 15.08833565 22777,6917.9,95.438,541.4,538.13,0.0
53283.0,STARLINK-4175,PAYLOAD,2022-12-14 11:27:00,15.08832829,0.0001876,53.2193,86.7805,28.8064,331.3032,7.5865e-05,9.19e-06,0.0,0 STARLINK-4175,1 53283U 22086AT  22348.47709165  .00000919  00000-0  75865-4 0  9991,2 53283  53.2193  86.7805 0001876  28.8064 331.3032 15.08832829 22870,6917.901999999999,95.438,541.065,538.47,0.0
53283.0,STARLINK-4175,PAYLOAD,2022-12-14 17:48:33,15.08836357,0.0002315,53.2183,85.59100000000002,32.2986,327.8147,7.7988e-05,9.53e-06,0.0,0 STARLINK-4175,1 53283U 22086AT  22348.74205079  .00000953  00000-0  77988-4 0  9992,2 53283  53.2183  85.5910 0002315  32.2986 327.8147 15.08836357 22747,6917.892,95.438,541.3580000000002,538.155,0.0
53283.0,STARLINK-4175,PAYLOAD,2022-12-15 12:53:10,15.08840072,0.0002127,53.2185,82.0207,46.8297,313.2873,0.00010889,1.445e-05,0.0,0 STARLINK-4175,1 53283U 22086AT  22349.53692989  .00001445  00000-0  10889-3 0  9993,2 53283  53.2185  82.0207 0002127  46.8297 313.2873 15.08840072 23034,6917.88,95.438,541.217,538.274,0.0
53283.0,STARLINK-4175,PAYLOAD,2022-12-15 16:03:56,15.08842486,0.0002057,53.2193,81.4271,43.2524,316.863,0.00011067,1.474e-05,0.0,0 STARLINK-4175,1 53283U 22086AT  22349.66940810  .00001474  00000-0  11067-3 0  9997,2 53283  53.2193  81.4271 0002057  43.2524 316.8630 15.08842486 23056,6917.873000000001,95.437,541.161,538.315,0.0
53283.0,STARLINK-4175,PAYLOAD,2022-12-16 06:22:25,15.08835508,0.0001901,53.2193,78.7512,37.895,322.2176,0.00011352,1.519e-05,0.0,0 STARLINK-4175,1 53283U 22086AT  22350.26557367  .00001519  00000-0  11352-3 0  9993,2 53283  53.2193  78.7512 0001901  37.8950 322.2176 15.08835508 22975,6917.894,95.438,541.0740000000002,538.444,0.0
53283.0,STARLINK-4175,PAYLOAD,2022-12-16 12:43:58,15.08837154,0.0001986,53.219,77.5602,41.6567,318.4576,7.511699999999999e-05,9.07e-06,0.0,0 STARLINK-4175,1 53283U 22086AT  22350.53053352  .00000907  00000-0  75117-4 0  9998,2 53283  53.2190  77.5602 0001986  41.6567 318.4576 15.08837154 23183,6917.889,95.438,541.128,538.38,0.0
53283.0,STARLINK-4175,PAYLOAD,2022-12-16 17:30:07,15.08837353,0.000151,53.2184,76.6692,47.8689,312.2431,-6.7375e-05,-1.36e-05,0.0,0 STARLINK-4175,1 53283U 22086AT  22350.72925665 -.00001360  00000-0 -67375-4 0  9997,2 53283  53.2184  76.6692 0001510  47.8689 312.2431 15.08837353 23218,6917.888000000001,95.438,540.798,538.7090000000002,0.0
53283.0,STARLINK-4175,PAYLOAD,2022-12-17 12:34:45,15.08832018,0.0002067,53.2201,73.1008,36.8079,323.3055,7.9997e-05,9.85e-06,0.0,0 STARLINK-4175,1 53283U 22086AT  22351.52413909  .00000985  00000-0  79997-4 0  9992,2 53283  53.2201  73.1008 0002067  36.8079 323.3055 15.08832018 23331,6917.905,95.438,541.2,538.34,0.0
53283.0,STARLINK-4175,PAYLOAD,2022-12-17 14:10:08,15.08836804,0.0002059,53.2191,72.8035,37.4981,322.6154,6.1248e-06,-1.91e-06,0.0,0 STARLINK-4175,1 53283U 22086AT  22351.59037900 -.00000191  00000-0  61248-5 0  9993,2 53283  53.2191  72.8035 0002059  37.4981 322.6154 15.08836804 23345,6917.89,95.438,541.18,538.331,0.0
53283.0,STARLINK-4175,PAYLOAD,2022-12-18 12:25:33,15.08835178,0.0002006,53.2202,68.6392,38.1171,321.9963,2.704e-05,1.42e-06,0.0,0 STARLINK-4175,1 53283U 22086AT  22352.51774383  .00000142  00000-0  27040-4 0  9995,2 53283  53.2202  68.6392 0002006  38.1171 321.9963 15.08835178 23486,6917.895,95.438,541.148,538.372,0.0
53283.0,STARLINK-4175,PAYLOAD,2022-12-18 14:00:56,15.08832118,0.0001954,53.2196,68.3426,35.485,324.6272,8.1383e-06,-1.59e-06,0.0,0 STARLINK-4175,1 53283U 22086AT  22352.58398658 -.00000159  00000-0  81383-5 0  9999,2 53283  53.2196  68.3426 0001954  35.4850 324.6272 15.08832118 23325,6917.904,95.438,541.121,538.418,0.0
53283.0,STARLINK-4175,PAYLOAD,2022-12-18 21:57:52,15.08829604,0.0001981,53.2194,66.8559,35.0483,325.064,7.895600000000001e-05,9.68e-06,0.0,0 STARLINK-4175,1 53283U 22086AT  22352.91518850  .00000968  00000-0  78956-4 0  9992,2 53283  53.2194  66.8559 0001981  35.0483 325.0640 15.08829604 23545,6917.9119999999975,95.438,541.148,538.4069999999998,0.0
53283.0,STARLINK-4175,PAYLOAD,2022-12-19 21:48:38,15.08844377,0.0002187,53.2197,62.3951,35.1519,324.9617,0.00019083,2.751e-05,0.0,0 STARLINK-4175,1 53283U 22086AT  22353.90877920  .00002751  00000-0  19083-3 0  9995,2 53283  53.2197  62.3951 0002187  35.1519 324.9617 15.08844377 23529,6917.8669999999975,95.437,541.245,538.219,0.0
53283.0,STARLINK-4175,PAYLOAD,2022-12-20 10:31:42,15.08856221,0.0002015,53.2197,60.0161,40.9174,319.1969,0.00021877,3.197e-05,0.0,0 STARLINK-4175,1 53283U 22086AT  22354.43869155  .00003197  00000-0  21877-3 0  9994,2 53283  53.2197  60.0161 0002015  40.9174 319.1969 15.08856221 23772,6917.831,95.437,541.09,538.302,0.0
53283.0,STARLINK-4175,PAYLOAD,2022-12-21 04:00:57,15.08848395,0.0002476,53.2189,56.7492,39.2619,320.8552,-5.5168e-05,-1.167e-05,0.0,0 STARLINK-4175,1 53283U 22086AT  22355.16733580 -.00001167  00000-0 -55168-4 0  9995,2 53283  53.2189  56.7492 0002476  39.2619 320.8552 15.08848395 23712,6917.855,95.437,541.433,538.007,0.0
53283.0,STARLINK-4175,PAYLOAD,2022-12-21 10:22:31,15.08829088,0.0002202,53.2183,55.5542,33.5859,326.5273,-3.2798e-05,-8.1e-06,0.0,0 STARLINK-4175,1 53283U 22086AT  22355.43231224 -.00000810  00000-0 -32798-4 0  9991,2 53283  53.2183  55.5542 0002202  33.5859 326.5273 15.08829088 23754,6917.9140000000025,95.438,541.302,538.255,0.0
53283.0,STARLINK-4175,PAYLOAD,2022-12-22 03:51:45,15.08847469,0.0002163,53.2201,52.2868,31.7756,328.3367,-6.3042e-05,-1.292e-05,0.0,0 STARLINK-4175,1 53283U 22086AT  22356.16094173 -.00001292  00000-0 -63042-4 0  9993,2 53283  53.2201  52.2868 0002163  31.7756 328.3367 15.08847469 23861,6917.858,95.437,541.219,538.226,0.0
53283.0,STARLINK-4175,PAYLOAD,2022-12-22 10:13:17,15.0885229,0.0002152,53.2198,51.0967,32.7601,327.3524,-7.1151e-06,-4.02e-06,0.0,0 STARLINK-4175,1 53283U 22086AT  22356.42589569 -.00000402  00000-0 -71151-5 0  9993,2 53283  53.2198  51.0967 0002152  32.7601 327.3524 15.08852290 24077,6917.843000000003,95.437,541.197,538.219,0.0
53283.0,STARLINK-4175,PAYLOAD,2022-12-22 13:24:05,15.08818287,0.0001476,53.2199,50.5005,36.9501,323.1593,-0.00024123,-4.123e-05,0.0,0 STARLINK-4175,1 53283U 22086AT  22356.55840012 -.00004123  00000-0 -24123-3 0  9999,2 53283  53.2199  50.5005 0001476  36.9501 323.1593 15.08818287 23929,6917.946999999999,95.439,540.8330000000002,538.7909999999998,0.0
53283.0,STARLINK-4175,PAYLOAD,2022-12-22 22:56:22,15.0883953,0.0001710999999999,53.22,48.7175,41.2687,318.8434,2.5231e-05,1.14e-06,0.0,0 STARLINK-4175,1 53283U 22086AT  22356.95582105  .00000114  00000-0  25231-4 0  9995,2 53283  53.2200  48.7175 0001711  41.2687 318.8434 15.08839530 23980,6917.882,95.438,540.93,538.563,0.0
53283.0,STARLINK-4175,PAYLOAD,2022-12-23 10:04:05,15.08829354,0.0002141,53.2201,46.6356,19.876,340.2315,5.0611e-05,5.17e-06,0.0,0 STARLINK-4175,1 53283U 22086AT  22357.41950938  .00000517  00000-0  50611-4 0  9997,2 53283  53.2201  46.6356 0002141  19.8760 340.2315 15.08829354 24059,6917.913000000001,95.438,541.259,538.297,0.0
53283.0,STARLINK-4175,PAYLOAD,2022-12-24 09:54:52,15.08842853,0.0002245,53.2197,42.1771,32.1091,328.0037,7.5512e-05,9.14e-06,0.0,0 STARLINK-4175,1 53283U 22086AT  22358.41310627  .00000914  00000-0  75512-4 0  9991,2 53283  53.2197  42.1771 0002245  32.1091 328.0037 15.08842853 24206,6917.871999999999,95.437,541.29,538.184,0.0
53283.0,STARLINK-4175,PAYLOAD,2022-12-25 11:21:03,15.08831464,0.000228,53.2193,37.4182,32.1222,327.9909,2.8819e-05,1.7e-06,0.0,0 STARLINK-4175,1 53283U 22086AT  22359.47295611  .00000170  00000-0  28819-4 0  9995,2 53283  53.2193  37.4182 0002280  32.1222 327.9909 15.08831464 24369,6917.906,95.438,541.349,538.194,0.0
53283.0,STARLINK-4175,PAYLOAD,2022-12-25 19:17:58,15.08837055,0.0002288,53.2193,35.9315,31.274,328.8388,8.219e-05,1.02e-05,0.0,0 STARLINK-4175,1 53283U 22086AT  22359.80415203  .00001020  00000-0  82190-4 0  9990,2 53283  53.2193  35.9315 0002288  31.2740 328.8388 15.08837055 24580,6917.889,95.438,541.337,538.172,0.0
53283.0,STARLINK-4175,PAYLOAD,2022-12-26 12:47:13,15.08838208,0.0002337,53.2196,32.6604,30.9158,329.1971,3.8762e-06,-2.27e-06,0.0,0 STARLINK-4175,1 53283U 22086AT  22360.53279659 -.00000227  00000-0  38762-5 0  9991,2 53283  53.2196  32.6604 0002337  30.9158 329.1971 15.08838208 24529,6917.886,95.438,541.368,538.134,0.0
53283.0,STARLINK-4175,PAYLOAD,2022-12-27 11:02:37,15.08841893,0.0002274,53.2187,28.498,33.2775,326.8359,0.00017534,2.504e-05,0.0,0 STARLINK-4175,1 53283U 22086AT  22361.46015209  .00002504  00000-0  17534-3 0  9994,2 53283  53.2187  28.4980 0002274  33.2775 326.8359 15.08841893 24832,6917.875,95.437,541.313,538.1659999999998,0.0
53283.0,STARLINK-4175,PAYLOAD,2022-12-27 18:59:31,15.0885663,0.00024,53.2187,27.0112,32.6726,327.4414,0.00020828,3.03e-05,0.0,0 STARLINK-4175,1 53283U 22086AT  22361.79134099  .00003030  00000-0  20828-3 0  9994,2 53283  53.2187  27.0112 0002400  32.6726 327.4414 15.08856630 24883,6917.83,95.437,541.355,538.034,0.0
